[{"CCSDS_OMM_VERS":"2.0","COMMENT":"GENERATED VIA SPACE-TRACK.ORG API","CREATION_DATE":"2024-02-16T17:39:09","ORIGINATOR":"18 SPCS","OBJECT_NAME":"NAVSTAR 78 (USA 293)","OBJECT_ID":"2019-056A","CENTER_NAME":"EARTH","REF_FRAME":"TEME","TIME_SYSTEM":"UTC","MEAN_ELEMENT_THEORY":"SGP4","EPOCH":"2024-02-16T05:52:28.173792","MEAN_MOTION":"2.00569421","ECCENTRICITY":"0.00388350","INCLINATION":"55.8403","RA_OF_ASC_NODE":"4.9090","ARG_OF_PERICENTER":"190.4834","MEAN_ANOMALY":"289.2442","EPHEMERIS_TYPE":"0","CLASSIFICATION_TYPE":"U","NORAD_CAT_ID":"44506","ELEMENT_SET_NO":"999","REV_AT_EPOCH":"3298","BSTAR":"0.00000000000000","MEAN_MOTION_DOT":"-0.00000097","MEAN_MOTION_DDOT":"0.0000000000000","SEMIMAJOR_AXIS":"26559.834","PERIOD":"717.956","APOAPSIS":"20284.844","PERIAPSIS":"20078.554","OBJECT_TYPE":"PAYLOAD","RCS_SIZE":"LARGE","COUNTRY_CODE":"US","LAUNCH_DATE":"2019-08-22","SITE":"AFETR","DECAY_DATE":null,"FILE":"4190317","GP_ID":"249405768","TLE_LINE0":"0 NAVSTAR 78 (USA 293)","TLE_LINE1":"1 44506U 19056A   24047.24477053 -.00000097  00000-0  00000-0 0  9996","TLE_LINE2":"2 44506  55.8403   4.9090 0038835 190.4834 289.2442  2.00569421 32986"},{"CCSDS_OMM_VERS":"2.0","COMMENT":"GENERATED VIA SPACE-TRACK.ORG API","CREATION_DATE":"2024-02-16T17:39:09","ORIGINATOR":"18 SPCS","OBJECT_NAME":"NAVSTAR 51 (USA 166)","OBJECT_ID":"2003-005A","CENTER_NAME":"EARTH","REF_FRAME":"TEME","TIME_SYSTEM":"UTC","MEAN_ELEMENT_THEORY":"SGP4","EPOCH":"2024-02-16T06:18:52.081056","MEAN_MOTION":"2.00556532","ECCENTRICITY":"0.01382380","INCLINATION":"55.1617","RA_OF_ASC_NODE":"248.8457","ARG_OF_PERICENTER":"46.6474","MEAN_ANOMALY":"119.2767","EPHEMERIS_TYPE":"0","CLASSIFICATION_TYPE":"U","NORAD_CAT_ID":"27663","ELEMENT_SET_NO":"999","REV_AT_EPOCH":"15422","BSTAR":"0.00000000000000","MEAN_MOTION_DOT":"0.00000061","MEAN_MOTION_DDOT":"0.0000000000000","SEMIMAJOR_AXIS":"26560.972","PERIOD":"718.002","APOAPSIS":"20550.011","PERIAPSIS":"19815.664","OBJECT_TYPE":"PAYLOAD","RCS_SIZE":"LARGE","COUNTRY_CODE":"US","LAUNCH_DATE":"2003-01-29","SITE":"AFETR","DECAY_DATE":null,"FILE":"4190317","GP_ID":"249395518","TLE_LINE0":"0 NAVSTAR 51 (USA 166)","TLE_LINE1":"1 27663U 03005A   24047.26310279  .00000061  00000-0  00000-0 0  9996","TLE_LINE2":"2 27663  55.1617 248.8457 0138238  46.6474 119.2767  2.00556532154220"},{"CCSDS_OMM_VERS":"2.0","COMMENT":"GENERATED VIA SPACE-TRACK.ORG API","CREATION_DATE":"2024-02-16T17:39:09","ORIGINATOR":"18 SPCS","OBJECT_NAME":"NAVSTAR 76 (USA 266)","OBJECT_ID":"2016-007A","CENTER_NAME":"EARTH","REF_FRAME":"TEME","TIME_SYSTEM":"UTC","MEAN_ELEMENT_THEORY":"SGP4","EPOCH":"2024-02-16T06:55:33.726720","MEAN_MOTION":"2.00567766","ECCENTRICITY":"0.00773650","INCLINATION":"55.0756","RA_OF_ASC_NODE":"123.2947","ARG_OF_PERICENTER":"236.2536","MEAN_ANOMALY":"123.0500","EPHEMERIS_TYPE":"0","CLASSIFICATION_TYPE":"U","NORAD_CAT_ID":"41328","ELEMENT_SET_NO":"999","REV_AT_EPOCH":"5875","BSTAR":"0.00000000000000","MEAN_MOTION_DOT":"-0.00000036","MEAN_MOTION_DDOT":"0.0000000000000","SEMIMAJOR_AXIS":"26559.980","PERIOD":"717.962","APOAPSIS":"20387.327","PERIAPSIS":"19976.364","OBJECT_TYPE":"PAYLOAD","RCS_SIZE":"LARGE","COUNTRY_CODE":"US","LAUNCH_DATE":"2016-02-05","SITE":"AFETR","DECAY_DATE":null,"FILE":"4190317","GP_ID":"249403814","TLE_LINE0":"0 NAVSTAR 76 (USA 266)","TLE_LINE1":"1 41328U 16007A   24047.28858480 -.00000036  00000-0  00000-0 0  9992","TLE_LINE2":"2 41328  55.0756 123.2947 0077365 236.2536 123.0500  2.00567766 58756"},{"CCSDS_OMM_VERS":"2.0","COMMENT":"GENERATED VIA SPACE-TRACK.ORG API","CREATION_DATE":"2024-02-17T03:47:55","ORIGINATOR":"18 SPCS","OBJECT_NAME":"NAVSTAR 76 (USA 266)","OBJECT_ID":"2016-007A","CENTER_NAME":"EARTH","REF_FRAME":"TEME","TIME_SYSTEM":"UTC","MEAN_ELEMENT_THEORY":"SGP4","EPOCH":"2024-02-16T06:55:33.788064","MEAN_MOTION":"2.00567727","ECCENTRICITY":"0.00773720","INCLINATION":"55.0756","RA_OF_ASC_NODE":"123.2947","ARG_OF_PERICENTER":"236.2569","MEAN_ANOMALY":"123.0466","EPHEMERIS_TYPE":"0","CLASSIFICATION_TYPE":"U","NORAD_CAT_ID":"41328","ELEMENT_SET_NO":"999","REV_AT_EPOCH":"5875","BSTAR":"0.00000000000000","MEAN_MOTION_DOT":"-0.00000036","MEAN_MOTION_DDOT":"0.0000000000000","SEMIMAJOR_AXIS":"26559.984","PERIOD":"717.962","APOAPSIS":"20387.349","PERIAPSIS":"19976.349","OBJECT_TYPE":"PAYLOAD","RCS_SIZE":"LARGE","COUNTRY_CODE":"US","LAUNCH_DATE":"2016-02-05","SITE":"AFETR","DECAY_DATE":null,"FILE":"4190592","GP_ID":"249438662","TLE_LINE0":"0 NAVSTAR 76 (USA 266)","TLE_LINE1":"1 41328U 16007A   24047.28858551 -.00000036  00000-0  00000-0 0  9991","TLE_LINE2":"2 41328  55.0756 123.2947 0077372 236.2569 123.0466  2.00567727 58758"},{"CCSDS_OMM_VERS":"2.0","COMMENT":"GENERATED VIA SPACE-TRACK.ORG API","CREATION_DATE":"2024-02-16T17:39:09","ORIGINATOR":"18 SPCS","OBJECT_NAME":"NAVSTAR 79 (USA 304)","OBJECT_ID":"2020-041A","CENTER_NAME":"EARTH","REF_FRAME":"TEME","TIME_SYSTEM":"UTC","MEAN_ELEMENT_THEORY":"SGP4","EPOCH":"2024-02-16T07:38:09.337632","MEAN_MOTION":"2.00559958","ECCENTRICITY":"0.00402960","INCLINATION":"56.0222","RA_OF_ASC_NODE":"62.2157","ARG_OF_PERICENTER":"193.4145","MEAN_ANOMALY":"279.4411","EPHEMERIS_TYPE":"0","CLASSIFICATION_TYPE":"U","NORAD_CAT_ID":"45854","ELEMENT_SET_NO":"999","REV_AT_EPOCH":"2695","BSTAR":"0.00000000000000","MEAN_MOTION_DOT":"-0.00000045","MEAN_MOTION_DDOT":"0.0000000000000","SEMIMAJOR_AXIS":"26560.670","PERIOD":"717.990","APOAPSIS":"20289.564","PERIAPSIS":"20075.506","OBJECT_TYPE":"PAYLOAD","RCS_SIZE":"LARGE","COUNTRY_CODE":"US","LAUNCH_DATE":"2020-06-30","SITE":"AFETR","DECAY_DATE":null,"FILE":"4190317","GP_ID":"249406762","TLE_LINE0":"0 NAVSTAR 79 (USA 304)","TLE_LINE1":"1 45854U 20041A   24047.31816363 -.00000045  00000-0  00000-0 0  9991","TLE_LINE2":"2 45854  56.0222  62.2157 0040296 193.4145 279.4411  2.00559958 26959"},{"CCSDS_OMM_VERS":"2.0","COMMENT":"GENERATED VIA SPACE-TRACK.ORG API","CREATION_DATE":"2024-02-16T14:46:16","ORIGINATOR":"18 SPCS","OBJECT_NAME":"NAVSTAR 72 (USA 258)","OBJECT_ID":"2014-068A","CENTER_NAME":"EARTH","REF_FRAME":"TEME","TIME_SYSTEM":"UTC","MEAN_ELEMENT_THEORY":"SGP4","EPOCH":"2024-02-16T08:21:14.880960","MEAN_MOTION":"2.00551783","ECCENTRICITY":"0.00489500","INCLINATION":"56.3183","RA_OF_ASC_NODE":"63.9957","ARG_OF_PERICENTER":"59.7646","MEAN_ANOMALY":"300.7613","EPHEMERIS_TYPE":"0","CLASSIFICATION_TYPE":"U","NORAD_CAT_ID":"40294","ELEMENT_SET_NO":"999","REV_AT_EPOCH":"6810","BSTAR":"0.00000000000000","MEAN_MOTION_DOT":"-0.00000043","MEAN_MOTION_DDOT":"0.0000000000000","SEMIMAJOR_AXIS":"26561.391","PERIOD":"718.019","APOAPSIS":"20313.275","PERIAPSIS":"20053.238","OBJECT_TYPE":"PAYLOAD","RCS_SIZE":"LARGE","COUNTRY_CODE":"US","LAUNCH_DATE":"2014-10-29","SITE":"AFETR","DECAY_DATE":null,"FILE":"4190234","GP_ID":"249385078","TLE_LINE0":"0 NAVSTAR 72 (USA 258)","TLE_LINE1":"1 40294U 14068A   24047.34808890 -.00000043  00000-0  00000+0 0  9992","TLE_LINE2":"2 40294  56.3183  63.9957 0048950  59.7646 300.7613  2.00551783 68105"},{"CCSDS_OMM_VERS":"2.0","COMMENT":"GENERATED VIA SPACE-TRACK.ORG API","CREATION_DATE":"2024-02-16T17:39:09","ORIGINATOR":"18 SPCS","OBJECT_NAME":"NAVSTAR 72 (USA 258)","OBJECT_ID":"2014-068A","CENTER_NAME":"EARTH","REF_FRAME":"TEME","TIME_SYSTEM":"UTC","MEAN_ELEMENT_THEORY":"SGP4","EPOCH":"2024-02-16T08:21:14.880960","MEAN_MOTION":"2.00551783","ECCENTRICITY":"0.00489500","INCLINATION":"56.3183","RA_OF_ASC_NODE":"63.9957","ARG_OF_PERICENTER":"59.7646","MEAN_ANOMALY":"300.7613","EPHEMERIS_TYPE":"0","CLASSIFICATION_TYPE":"U","NORAD_CAT_ID":"40294","ELEMENT_SET_NO":"999","REV_AT_EPOCH":"6812","BSTAR":"0.00000000000000","MEAN_MOTION_DOT":"-0.00000043","MEAN_MOTION_DDOT":"0.0000000000000","SEMIMAJOR_AXIS":"26561.391","PERIOD":"718.019","APOAPSIS":"20313.275","PERIAPSIS":"20053.238","OBJECT_TYPE":"PAYLOAD","RCS_SIZE":"LARGE","COUNTRY_CODE":"US","LAUNCH_DATE":"2014-10-29","SITE":"AFETR","DECAY_DATE":null,"FILE":"4190317","GP_ID":"249402940","TLE_LINE0":"0 NAVSTAR 72 (USA 258)","TLE_LINE1":"1 40294U 14068A   24047.34808890 -.00000043  00000-0  00000-0 0  9993","TLE_LINE2":"2 40294  56.3183  63.9957 0048950  59.7646 300.7613  2.00551783 68127"},{"CCSDS_OMM_VERS":"2.0","COMMENT":"GENERATED VIA SPACE-TRACK.ORG API","CREATION_DATE":"2024-02-16T14:16:15","ORIGINATOR":"18 SPCS","OBJECT_NAME":"NAVSTAR 56 (USA 180)","OBJECT_ID":"2004-045A","CENTER_NAME":"EARTH","REF_FRAME":"TEME","TIME_SYSTEM":"UTC","MEAN_ELEMENT_THEORY":"SGP4","EPOCH":"2024-02-16T08:55:27.648192","MEAN_MOTION":"2.00559198","ECCENTRICITY":"0.01641010","INCLINATION":"55.4412","RA_OF_ASC_NODE":"359.0850","ARG_OF_PERICENTER":"288.5830","MEAN_ANOMALY":"159.5252","EPHEMERIS_TYPE":"0","CLASSIFICATION_TYPE":"U","NORAD_CAT_ID":"28474","ELEMENT_SET_NO":"999","REV_AT_EPOCH":"14133","BSTAR":"0.00000000000000","MEAN_MOTION_DOT":"-0.00000102","MEAN_MOTION_DDOT":"0.0000000000000","SEMIMAJOR_AXIS":"26560.737","PERIOD":"717.993","APOAPSIS":"20618.466","PERIAPSIS":"19746.737","OBJECT_TYPE":"PAYLOAD","RCS_SIZE":"LARGE","COUNTRY_CODE":"US","LAUNCH_DATE":"2004-11-06","SITE":"AFETR","DECAY_DATE":null,"FILE":"4190047","GP_ID":"249381237","TLE_LINE0":"0 NAVSTAR 56 (USA 180)","TLE_LINE1":"1 28474U 04045A   24047.37184778 -.00000102  00000-0  00000+0 0  9993","TLE_LINE2":"2 28474  55.4412 359.0850 0164101 288.5830 159.5252  2.00559198141335"}]